[{"OBJECT_NAME":"STARLINK-6058","OBJECT_ID":"2023-078AG","EPOCH":"2026-03-09T22:36:25.053696","MEAN_MOTION":14.98328333,"ECCENTRICITY":0.00022815,"INCLINATION":70.0008,"RA_OF_ASC_NODE":343.9928,"ARG_OF_PERICENTER":262.4965,"MEAN_ANOMALY":97.5935,"EPHEMERIS_TYPE":0,"CLASSIFICATION_TYPE":"U","NORAD_CAT_ID":56797,"ELEMENT_SET_NO":999,"REV_AT_EPOCH":15271,"BSTAR":-3.4565952e-5,"MEAN_MOTION_DOT":-5.05e-6,"MEAN_MOTION_DDOT":0},{"OBJECT_NAME":"SATELIOT_1","OBJECT_ID":"2024-149CL","EPOCH":"2026-03-09T18:08:18.068352","MEAN_MOTION":14.97604186,"ECCENTRICITY":0.00077489,"INCLINATION":97.6798,"RA_OF_ASC_NODE":146.3176,"ARG_OF_PERICENTER":58.9869,"MEAN_ANOMALY":301.2113,"EPHEMERIS_TYPE":0,"CLASSIFICATION_TYPE":"U","NORAD_CAT_ID":60550,"ELEMENT_SET_NO":999,"REV_AT_EPOCH":8518,"BSTAR":0.00029754021,"MEAN_MOTION_DOT":3.421e-5,"MEAN_MOTION_DDOT":0}]
